{"type": "FeatureCollection", "features": [{"type": "Feature", "geometry": {"type": "Polygon", "coordinates": [[[-43.1876, -21.7429], [-43.1895, -21.7433], [-43.1903, -21.7442], [-43.1954, -21.7455], [-43.1976, -21.7455], [-43.2005, -21.747], [-43.2019, -21.7467], [-43.2036, -21.7471], [-43.2083, -21.7479], [-43.2096, -21.7487], [-43.2113, -21.7524], [-43.2137, -21.7527], [-43.2145, -21.7535], [-43.2152, -21.7568], [-43.218, -21.758], [-43.2199, -21.7599], [-43.2226, -21.7601], [-43.2247, -21.7608], [-43.2304, -21.7611], [-43.2324, -21.7619], [-43.2356, -21.7639], [-43.2373, -21.7656], [-43.2383, -21.7659], [-43.2409, -21.7679], [-43.2433, -21.7692], [-43.2466, -21.77], [-43.249, -21.7691], [-43.2488, -21.7683], [-43.2468, -21.7676], [-43.246, -21.7662], [-43.2461, -21.7613], [-43.2455, -21.7604], [-43.2408, -21.7591], [-43.2395, -21.7577], [-43.2405, -21.7564], [-43.2402, -21.7524], [-43.2422, -21.7503], [-43.2439, -21.7502], [-43.2477, -21.7511], [-43.2503, -21.7504], [-43.2534, -21.7514], [-43.2549, -21.7538], [-43.2576, -21.7543], [-43.2592, -21.7531], [-43.2608, -21.7512], [-43.2609, -21.749], [-43.263, -21.7474], [-43.2633, -21.7448], [-43.2625, -21.7439], [-43.2577, -21.7427], [-43.2574, -21.742], [-43.258, -21.7394], [-43.2597, -21.7373], [-43.2592, -21.7361], [-43.2575, -21.7345], [-43.2577, -21.7331], [-43.2592, -21.7316], [-43.2614, -21.731], [-43.2619, -21.7259], [-43.2614, -21.7235], [-43.262, -21.7216], [-43.2606, -21.7189], [-43.2599, -21.7183], [-43.2594, -21.7164], [-43.2597, -21.7152], [-43.2651, -21.7104], [-43.264, -21.7071], [-43.2649, -21.7046], [-43.2664, -21.7032], [-43.2648, -21.7021], [-43.2648, -21.7014], [-43.2661, -21.6985], [-43.2651, -21.6948], [-43.2637, -21.6922], [-43.2642, -21.6904], [-43.2626, -21.6888], [-43.2619, -21.6846], [-43.2612, -21.6839], [-43.2587, -21.6838], [-43.2589, -21.6811], [-43.2602, -21.6805], [-43.2623, -21.6817], [-43.2667, -21.6813], [-43.2709, -21.683], [-43.2725, -21.6848], [-43.2737, -21.6855], [-43.277, -21.6862], [-43.2782, -21.6868], [-43.281, -21.6854], [-43.2813, -21.6843], [-43.279, -21.6811], [-43.2798, -21.6793], [-43.282, -21.678], [-43.286, -21.6774], [-43.2875, -21.6759], [-43.2884, -21.674], [-43.2898, -21.6721], [-43.2895, -21.6692], [-43.2899, -21.668], [-43.2926, -21.6664], [-43.2939, -21.663], [-43.2949, -21.6614], [-43.2966, -21.66], [-43.2981, -21.6571], [-43.2989, -21.6566], [-43.3011, -21.654], [-43.3038, -21.6537], [-43.3056, -21.6562], [-43.3086, -21.6562], [-43.3101, -21.6577], [-43.311, -21.6607], [-43.3155, -21.663], [-43.3185, -21.6621], [-43.3191, -21.6635], [-43.3214, -21.6622], [-43.3241, -21.6629], [-43.3256, -21.662], [-43.3261, -21.66], [-43.328, -21.6563], [-43.3322, -21.6562], [-43.3348, -21.6554], [-43.3391, -21.6529], [-43.3393, -21.6511], [-43.3368, -21.6488], [-43.3343, -21.6471], [-43.3352, -21.6444], [-43.3384, -21.6418], [-43.3423, -21.64], [-43.3444, -21.6411], [-43.3455, -21.641], [-43.3488, -21.6391], [-43.3505, -21.639], [-43.3524, -21.6377], [-43.3555, -21.6364], [-43.3549, -21.6338], [-43.3555, -21.6312], [-43.3593, -21.6265], [-43.358, -21.6234], [-43.3578, -21.6209], [-43.3573, -21.62], [-43.3555, -21.619], [-43.3523, -21.618], [-43.3498, -21.6191], [-43.3483, -21.6191], [-43.3478, -21.6176], [-43.349, -21.6149], [-43.3501, -21.6138], [-43.3534, -21.6132], [-43.3543, -21.6113], [-43.3538, -21.6077], [-43.3565, -21.6053], [-43.3574, -21.6037], [-43.3561, -21.6001], [-43.3569, -21.5995], [-43.3594, -21.6003], [-43.3605, -21.5993], [-43.3605, -21.5969], [-43.3634, -21.5946], [-43.3623, -21.5927], [-43.3599, -21.5913], [-43.3577, -21.5878], [-43.3604, -21.587], [-43.3615, -21.5859], [-43.362, -21.5825], [-43.3625, -21.5812], [-43.3641, -21.5799], [-43.3654, -21.5799], [-43.3664, -21.5779], [-43.371, -21.5721], [-43.372, -21.5698], [-43.3718, -21.5661], [-43.3748, -21.5646], [-43.3754, -21.5629], [-43.3753, -21.5607], [-43.3766, -21.5594], [-43.3768, -21.5573], [-43.3778, -21.5565], [-43.3797, -21.5568], [-43.381, -21.5582], [-43.3825, -21.5585], [-43.3849, -21.5576], [-43.3867, -21.5574], [-43.3873, -21.553], [-43.3889, -21.5513], [-43.3889, -21.5488], [-43.3876, -21.5465], [-43.388, -21.5456], [-43.3902, -21.5458], [-43.3913, -21.5445], [-43.3928, -21.5441], [-43.3941, -21.5444], [-43.3964, -21.5433], [-43.3976, -21.5442], [-43.3989, -21.544], [-43.4005, -21.5413], [-43.4012, -21.5367], [-43.4023, -21.5364], [-43.4042, -21.5376], [-43.4057, -21.5372], [-43.4091, -21.5377], [-43.4106, -21.5373], [-43.4134, -21.5332], [-43.4146, -21.532], [-43.4192, -21.5309], [-43.4207, -21.5326], [-43.422, -21.5332], [-43.4248, -21.5359], [-43.4258, -21.5392], [-43.4265, -21.5405], [-43.4308, -21.54], [-43.4324, -21.5394], [-43.4337, -21.538], [-43.4357, -21.5377], [-43.4373, -21.5369], [-43.4381, -21.5358], [-43.4383, -21.5342], [-43.437, -21.5316], [-43.4367, -21.5298], [-43.4385, -21.5263], [-43.4389, -21.5246], [-43.4406, -21.524], [-43.4427, -21.5255], [-43.4448, -21.5251], [-43.4464, -21.5238], [-43.4478, -21.5233], [-43.4498, -21.5234], [-43.4493, -21.5216], [-43.4505, -21.5206], [-43.4541, -21.5209], [-43.456, -21.5222], [-43.4575, -21.5252], [-43.4602, -21.5254], [-43.4623, -21.5277], [-43.4635, -21.5285], [-43.4669, -21.5288], [-43.471, -21.5277], [-43.4729, -21.5306], [-43.4732, -21.5324], [-43.4722, -21.5342], [-43.4739, -21.5356], [-43.4728, -21.5391], [-43.4738, -21.5417], [-43.4758, -21.5426], [-43.4773, -21.5429], [-43.4783, -21.5422], [-43.4783, -21.5403], [-43.4795, -21.5376], [-43.4805, -21.5369], [-43.4817, -21.5351], [-43.4845, -21.535], [-43.4875, -21.5335], [-43.4885, -21.5313], [-43.4914, -21.5314], [-43.4926, -21.5307], [-43.4946, -21.5312], [-43.4963, -21.5327], [-43.4968, -21.5342], [-43.4951, -21.5357], [-43.4911, -21.5357], [-43.4905, -21.537], [-43.4908, -21.5383], [-43.4924, -21.5393], [-43.4966, -21.5398], [-43.4971, -21.5406], [-43.4967, -21.5428], [-43.4953, -21.5435], [-43.493, -21.5459], [-43.4901, -21.5474], [-43.4898, -21.5493], [-43.494, -21.5505], [-43.496, -21.5504], [-43.4959, -21.5518], [-43.4931, -21.5531], [-43.493, -21.5548], [-43.4943, -21.5559], [-43.4966, -21.5564], [-43.5011, -21.5566], [-43.5033, -21.5604], [-43.5061, -21.5595], [-43.5076, -21.5601], [-43.5102, -21.5598], [-43.5113, -21.5603], [-43.5113, -21.5619], [-43.514, -21.5665], [-43.5134, -21.5696], [-43.5135, -21.5715], [-43.5146, -21.5732], [-43.514, -21.5754], [-43.5154, -21.5774], [-43.5158, -21.5787], [-43.5149, -21.5797], [-43.5135, -21.5827], [-43.5137, -21.5856], [-43.5142, -21.5864], [-43.5168, -21.5886], [-43.5178, -21.5888], [-43.5197, -21.5881], [-43.523, -21.5881], [-43.5247, -21.5898], [-43.5273, -21.5917], [-43.5288, -21.5946], [-43.5288, -21.5982], [-43.5298, -21.6], [-43.5292, -21.6028], [-43.5308, -21.6044], [-43.5324, -21.6077], [-43.5367, -21.6096], [-43.5382, -21.611], [-43.539, -21.6147], [-43.5406, -21.6169], [-43.5408, -21.6194], [-43.5417, -21.6206], [-43.5438, -21.6209], [-43.5462, -21.6198], [-43.5477, -21.6182], [-43.55, -21.6177], [-43.5524, -21.6161], [-43.5551, -21.6164], [-43.5576, -21.6164], [-43.5585, -21.6168], [-43.5622, -21.6163], [-43.566, -21.6164], [-43.5675, -21.6157], [-43.5724, -21.6124], [-43.5742, -21.6169], [-43.5769, -21.6175], [-43.5791, -21.6176], [-43.5813, -21.6162], [-43.5856, -21.6154], [-43.5887, -21.6155], [-43.5924, -21.6141], [-43.5945, -21.6152], [-43.5963, -21.6146], [-43.598, -21.615], [-43.5986, -21.6171], [-43.5977, -21.6217], [-43.5979, -21.6232], [-43.6012, -21.625], [-43.6016, -21.627], [-43.5997, -21.6284], [-43.5992, -21.6297], [-43.6005, -21.632], [-43.6019, -21.6329], [-43.6042, -21.6319], [-43.6053, -21.632], [-43.6066, -21.6352], [-43.6074, -21.6359], [-43.61, -21.6367], [-43.6097, -21.6387], [-43.6085, -21.6402], [-43.6116, -21.64], [-43.6156, -21.6373], [-43.6169, -21.6341], [-43.6169, -21.6309], [-43.62, -21.6289], [-43.6204, -21.6259], [-43.6187, -21.6233], [-43.6194, -21.6206], [-43.6183, -21.6196], [-43.6187, -21.6179], [-43.6201, -21.617], [-43.6212, -21.614], [-43.6243, -21.614], [-43.6249, -21.6124], [-43.6265, -21.6125], [-43.6277, -21.6142], [-43.6292, -21.6143], [-43.634, -21.6133], [-43.6364, -21.6123], [-43.6376, -21.6096], [-43.6395, -21.6079], [-43.6407, -21.6084], [-43.643, -21.6078], [-43.6463, -21.6032], [-43.6485, -21.6016], [-43.6514, -21.6006], [-43.6518, -21.5999], [-43.6551, -21.5976], [-43.6573, -21.5971], [-43.6586, -21.599], [-43.6598, -21.6], [-43.6627, -21.6015], [-43.6644, -21.6041], [-43.666, -21.6053], [-43.6668, -21.6071], [-43.6695, -21.6083], [-43.6709, -21.6106], [-43.6738, -21.6125], [-43.6735, -21.6162], [-43.6747, -21.6165], [-43.6766, -21.6188], [-43.6784, -21.6199], [-43.6784, -21.6209], [-43.6774, -21.622], [-43.678, -21.6238], [-43.6823, -21.624], [-43.6842, -21.6267], [-43.6846, -21.6296], [-43.6837, -21.6308], [-43.6851, -21.634], [-43.6839, -21.6359], [-43.6838, -21.6372], [-43.6846, -21.6417], [-43.6843, -21.6437], [-43.6857, -21.6445], [-43.6838, -21.6474], [-43.6839, -21.6482], [-43.6814, -21.6503], [-43.6814, -21.6522], [-43.6801, -21.6533], [-43.681, -21.6556], [-43.6803, -21.6568], [-43.6811, -21.6575], [-43.6826, -21.66], [-43.6848, -21.6606], [-43.684, -21.6618], [-43.6826, -21.6616], [-43.6816, -21.6628], [-43.6792, -21.6644], [-43.6747, -21.6637], [-43.6746, -21.6647], [-43.6733, -21.6655], [-43.673, -21.6669], [-43.6701, -21.6687], [-43.6701, -21.6708], [-43.6713, -21.6707], [-43.6722, -21.6725], [-43.6713, -21.6748], [-43.6735, -21.6765], [-43.6734, -21.6778], [-43.6747, -21.6794], [-43.6757, -21.6796], [-43.6768, -21.6809], [-43.677, -21.683], [-43.6792, -21.6846], [-43.6796, -21.6871], [-43.6807, -21.6877], [-43.6812, -21.692], [-43.6828, -21.693], [-43.6823, -21.6949], [-43.6813, -21.696], [-43.678, -21.6982], [-43.6788, -21.6993], [-43.6815, -21.7013], [-43.6802, -21.703], [-43.6792, -21.7056], [-43.6781, -21.7073], [-43.6796, -21.7082], [-43.6789, -21.71], [-43.679, -21.7119], [-43.6795, -21.7142], [-43.6774, -21.7142], [-43.6749, -21.7167], [-43.6725, -21.7199], [-43.6713, -21.721], [-43.6712, -21.7227], [-43.6697, -21.7225], [-43.6692, -21.7237], [-43.6675, -21.7235], [-43.6658, -21.7247], [-43.6637, -21.7253], [-43.6617, -21.7238], [-43.6601, -21.7231], [-43.6599, -21.7248], [-43.6605, -21.7258], [-43.6595, -21.727], [-43.6584, -21.7274], [-43.6591, -21.7289], [-43.659, -21.7299], [-43.6608, -21.7318], [-43.6631, -21.7348], [-43.6644, -21.7354], [-43.6688, -21.7363], [-43.669, -21.738], [-43.6672, -21.7413], [-43.6677, -21.7437], [-43.6667, -21.7443], [-43.667, -21.7463], [-43.6667, -21.749], [-43.6679, -21.7504], [-43.6654, -21.7502], [-43.6651, -21.7513], [-43.6665, -21.7523], [-43.6669, -21.7543], [-43.666, -21.7559], [-43.6647, -21.7564], [-43.6639, -21.755], [-43.6616, -21.7558], [-43.6605, -21.7592], [-43.6593, -21.7607], [-43.6585, -21.7637], [-43.6561, -21.7648], [-43.6548, -21.7671], [-43.6532, -21.7714], [-43.6527, -21.774], [-43.6523, -21.7777], [-43.6509, -21.7796], [-43.6507, -21.7805], [-43.6532, -21.7832], [-43.6537, -21.7854], [-43.6527, -21.7867], [-43.6518, -21.7896], [-43.6506, -21.7906], [-43.6435, -21.7923], [-43.6403, -21.7942], [-43.6368, -21.7954], [-43.6344, -21.7972], [-43.6349, -21.7989], [-43.6374, -21.8001], [-43.6372, -21.8024], [-43.6351, -21.8056], [-43.6346, -21.8071], [-43.6346, -21.8094], [-43.634, -21.8108], [-43.6323, -21.812], [-43.6298, -21.8147], [-43.6295, -21.8164], [-43.6301, -21.8188], [-43.6334, -21.8193], [-43.6343, -21.8178], [-43.6402, -21.8204], [-43.6412, -21.823], [-43.6406, -21.8273], [-43.6407, -21.8295], [-43.6446, -21.8289], [-43.6467, -21.8297], [-43.6489, -21.8319], [-43.6514, -21.8332], [-43.653, -21.8355], [-43.6521, -21.8404], [-43.6541, -21.8413], [-43.6554, -21.8428], [-43.6577, -21.8441], [-43.662, -21.8451], [-43.6631, -21.8476], [-43.6637, -21.8509], [-43.6655, -21.8534], [-43.6639, -21.8547], [-43.6607, -21.8583], [-43.6576, -21.8608], [-43.6577, -21.8657], [-43.6557, -21.8668], [-43.6524, -21.8666], [-43.6505, -21.8681], [-43.6491, -21.8683], [-43.6463, -21.868], [-43.6445, -21.8685], [-43.6412, -21.8722], [-43.6405, -21.8733], [-43.6412, -21.8772], [-43.639, -21.8787], [-43.6372, -21.8847], [-43.6368, -21.8891], [-43.6371, -21.8908], [-43.6382, -21.8919], [-43.6403, -21.8919], [-43.6443, -21.8931], [-43.6456, -21.8932], [-43.6478, -21.8921], [-43.6495, -21.8934], [-43.651, -21.8935], [-43.6519, -21.895], [-43.6505, -21.8973], [-43.6505, -21.8988], [-43.6532, -21.9008], [-43.6529, -21.9019], [-43.6516, -21.9035], [-43.6513, -21.9058], [-43.6475, -21.9071], [-43.6434, -21.9102], [-43.6412, -21.9108], [-43.6352, -21.9074], [-43.6335, -21.9077], [-43.6335, -21.9099], [-43.6325, -21.9104], [-43.6281, -21.9093], [-43.6259, -21.9074], [-43.623, -21.9062], [-43.6206, -21.9044], [-43.617, -21.9034], [-43.6131, -21.9048], [-43.6098, -21.9049], [-43.6083, -21.9056], [-43.6077, -21.9084], [-43.6077, -21.9119], [-43.6073, -21.9137], [-43.6063, -21.9155], [-43.6038, -21.9191], [-43.5984, -21.9236], [-43.5979, -21.9245], [-43.598, -21.9291], [-43.5975, -21.9324], [-43.5951, -21.934], [-43.5934, -21.9362], [-43.5927, -21.9402], [-43.59, -21.9428], [-43.5865, -21.9444], [-43.5857, -21.9451], [-43.585, -21.9481], [-43.5825, -21.9492], [-43.5814, -21.9523], [-43.5788, -21.9533], [-43.579, -21.9591], [-43.5784, -21.9612], [-43.5767, -21.9632], [-43.5779, -21.9641], [-43.5794, -21.9669], [-43.5814, -21.9688], [-43.5824, -21.9708], [-43.584, -21.9714], [-43.586, -21.9704], [-43.5873, -21.9719], [-43.5878, -21.9746], [-43.5906, -21.9744], [-43.5929, -21.9766], [-43.5948, -21.9767], [-43.5953, -21.9777], [-43.5954, -21.9798], [-43.5935, -21.9809], [-43.5926, -21.9824], [-43.5913, -21.9832], [-43.5884, -21.9838], [-43.5876, -21.9868], [-43.5877, -21.9883], [-43.5896, -21.9921], [-43.5892, -21.9934], [-43.5875, -21.9954], [-43.5867, -21.9972], [-43.5851, -21.9989], [-43.5822, -21.9992], [-43.5799, -21.9991], [-43.5802, -21.9956], [-43.5794, -21.9942], [-43.5774, -21.9932], [-43.5757, -21.9906], [-43.5739, -21.9923], [-43.5716, -21.9922], [-43.5698, -21.9897], [-43.568, -21.9879], [-43.5657, -21.9882], [-43.5641, -21.9846], [-43.5613, -21.9838], [-43.5588, -21.9825], [-43.5563, -21.9799], [-43.5542, -21.9788], [-43.5512, -21.9759], [-43.5487, -21.9767], [-43.5473, -21.9766], [-43.5447, -21.9755], [-43.5419, -21.9684], [-43.5394, -21.9692], [-43.5381, -21.9688], [-43.5353, -21.9661], [-43.5353, -21.9642], [-43.5344, -21.9631], [-43.5321, -21.9622], [-43.5314, -21.9603], [-43.5296, -21.9587], [-43.5275, -21.9581], [-43.524, -21.9582], [-43.5219, -21.9577], [-43.5203, -21.9569], [-43.5188, -21.9551], [-43.5176, -21.9527], [-43.5157, -21.9516], [-43.5128, -21.9513], [-43.5119, -21.9506], [-43.5114, -21.9489], [-43.51, -21.9473], [-43.5061, -21.9442], [-43.5042, -21.9445], [-43.5026, -21.9457], [-43.5011, -21.9452], [-43.5006, -21.9409], [-43.4996, -21.9396], [-43.4961, -21.9379], [-43.4946, -21.9388], [-43.4927, -21.9387], [-43.4912, -21.9378], [-43.4904, -21.9365], [-43.4907, -21.935], [-43.4948, -21.9329], [-43.4949, -21.9296], [-43.4953, -21.9274], [-43.4947, -21.9247], [-43.4951, -21.9214], [-43.4947, -21.9198], [-43.4958, -21.9181], [-43.4961, -21.915], [-43.4953, -21.9126], [-43.4925, -21.9114], [-43.4916, -21.9097], [-43.4897, -21.9082], [-43.488, -21.906], [-43.4898, -21.9039], [-43.4915, -21.9025], [-43.4928, -21.9026], [-43.4933, -21.9054], [-43.4948, -21.9056], [-43.4965, -21.9014], [-43.4949, -21.8998], [-43.4944, -21.8985], [-43.4951, -21.8958], [-43.4952, -21.8917], [-43.4942, -21.8906], [-43.4925, -21.89], [-43.4911, -21.8878], [-43.4919, -21.8861], [-43.4935, -21.8845], [-43.4974, -21.8838], [-43.4989, -21.8831], [-43.4993, -21.8818], [-43.4968, -21.8805], [-43.4908, -21.8803], [-43.4894, -21.8812], [-43.487, -21.8835], [-43.4856, -21.8841], [-43.4844, -21.8822], [-43.4811, -21.8804], [-43.4795, -21.88], [-43.4777, -21.8806], [-43.4759, -21.8831], [-43.4752, -21.8863], [-43.476, -21.8876], [-43.4752, -21.8907], [-43.4745, -21.8914], [-43.47, -21.8911], [-43.4697, -21.8905], [-43.4704, -21.8874], [-43.4662, -21.8835], [-43.4647, -21.8835], [-43.4634, -21.885], [-43.4603, -21.8865], [-43.4584, -21.8878], [-43.4567, -21.8879], [-43.4567, -21.8856], [-43.4561, -21.8834], [-43.4588, -21.8788], [-43.4603, -21.8768], [-43.4604, -21.8743], [-43.4544, -21.8727], [-43.4533, -21.8735], [-43.4478, -21.875], [-43.4454, -21.8754], [-43.4441, -21.8767], [-43.4422, -21.8774], [-43.4415, -21.8762], [-43.4417, -21.8721], [-43.4415, -21.8674], [-43.443, -21.8641], [-43.4451, -21.8612], [-43.443, -21.8589], [-43.442, -21.8583], [-43.4387, -21.8576], [-43.4372, -21.8562], [-43.4339, -21.8569], [-43.4321, -21.8587], [-43.4308, -21.8584], [-43.4284, -21.8567], [-43.4259, -21.8569], [-43.4246, -21.8579], [-43.4218, -21.858], [-43.4189, -21.8566], [-43.4167, -21.8543], [-43.4137, -21.8557], [-43.4123, -21.8578], [-43.4129, -21.8609], [-43.4154, -21.86], [-43.4193, -21.8611], [-43.4199, -21.8618], [-43.4204, -21.8643], [-43.4188, -21.8668], [-43.4197, -21.8675], [-43.4202, -21.8702], [-43.4193, -21.8728], [-43.4166, -21.8752], [-43.4173, -21.8771], [-43.4213, -21.8774], [-43.423, -21.8765], [-43.4243, -21.8764], [-43.4273, -21.8812], [-43.4273, -21.8825], [-43.4266, -21.8841], [-43.4239, -21.8855], [-43.4223, -21.8859], [-43.4194, -21.8874], [-43.4186, -21.8888], [-43.4186, -21.8924], [-43.4176, -21.8943], [-43.4159, -21.8944], [-43.4133, -21.8922], [-43.412, -21.8914], [-43.4095, -21.8881], [-43.4093, -21.886], [-43.4087, -21.8847], [-43.4084, -21.8821], [-43.4108, -21.8814], [-43.4106, -21.8787], [-43.41, -21.878], [-43.4047, -21.8771], [-43.4025, -21.8782], [-43.4001, -21.8805], [-43.3996, -21.8824], [-43.3986, -21.8828], [-43.3954, -21.8826], [-43.394, -21.8835], [-43.3926, -21.8864], [-43.3896, -21.8887], [-43.3864, -21.8894], [-43.3853, -21.8918], [-43.3845, -21.8924], [-43.3777, -21.8942], [-43.3746, -21.896], [-43.3754, -21.8936], [-43.3753, -21.8919], [-43.3742, -21.89], [-43.3746, -21.8887], [-43.3763, -21.8879], [-43.3784, -21.8859], [-43.38, -21.8822], [-43.3811, -21.8812], [-43.3828, -21.8808], [-43.3844, -21.8786], [-43.3846, -21.8756], [-43.384, -21.8715], [-43.3846, -21.8648], [-43.3857, -21.8637], [-43.3877, -21.8627], [-43.3925, -21.8599], [-43.3938, -21.8585], [-43.3937, -21.8575], [-43.3921, -21.8569], [-43.3915, -21.8559], [-43.3916, -21.8533], [-43.3902, -21.8514], [-43.3901, -21.8499], [-43.3907, -21.8457], [-43.389, -21.8444], [-43.3869, -21.8444], [-43.3854, -21.8432], [-43.3842, -21.8417], [-43.384, -21.8401], [-43.3855, -21.837], [-43.3852, -21.8352], [-43.3825, -21.8329], [-43.3794, -21.8331], [-43.3769, -21.8337], [-43.375, -21.8336], [-43.3741, -21.8304], [-43.3744, -21.8287], [-43.3757, -21.8259], [-43.3716, -21.8242], [-43.3662, -21.8281], [-43.3658, -21.8275], [-43.3662, -21.8238], [-43.3668, -21.8223], [-43.3632, -21.8226], [-43.3582, -21.8211], [-43.3564, -21.8213], [-43.3535, -21.8187], [-43.3509, -21.8184], [-43.3482, -21.8191], [-43.3455, -21.817], [-43.3434, -21.8157], [-43.3424, -21.8138], [-43.3424, -21.8125], [-43.3417, -21.8111], [-43.3388, -21.8102], [-43.3348, -21.8095], [-43.3323, -21.8103], [-43.3281, -21.8139], [-43.3269, -21.8154], [-43.3256, -21.8186], [-43.3226, -21.8214], [-43.3202, -21.8215], [-43.3188, -21.8225], [-43.3139, -21.8229], [-43.3114, -21.8238], [-43.31, -21.8249], [-43.3079, -21.8256], [-43.3051, -21.8245], [-43.3041, -21.8229], [-43.3012, -21.8209], [-43.2994, -21.8204], [-43.2978, -21.8214], [-43.2968, -21.8233], [-43.294, -21.8246], [-43.292, -21.8234], [-43.2898, -21.8231], [-43.2871, -21.8232], [-43.2854, -21.8245], [-43.283, -21.8227], [-43.2812, -21.8225], [-43.28, -21.8238], [-43.2777, -21.8254], [-43.2769, -21.829], [-43.2772, -21.8301], [-43.2785, -21.832], [-43.2781, -21.8333], [-43.2757, -21.8352], [-43.2747, -21.8368], [-43.2745, -21.8385], [-43.2736, -21.8388], [-43.2697, -21.8388], [-43.2685, -21.8381], [-43.2676, -21.8366], [-43.2672, -21.8344], [-43.2654, -21.8331], [-43.2627, -21.8332], [-43.2569, -21.8301], [-43.2556, -21.8311], [-43.2533, -21.8289], [-43.2521, -21.8283], [-43.2507, -21.829], [-43.2499, -21.8317], [-43.2477, -21.834], [-43.2456, -21.8347], [-43.2434, -21.834], [-43.2426, -21.8356], [-43.2431, -21.8371], [-43.2447, -21.8455], [-43.2456, -21.8467], [-43.248, -21.8478], [-43.2486, -21.849], [-43.2474, -21.8496], [-43.2435, -21.8506], [-43.2429, -21.852], [-43.2426, -21.8548], [-43.2413, -21.8575], [-43.2392, -21.8585], [-43.2383, -21.8608], [-43.237, -21.8618], [-43.2336, -21.8588], [-43.2314, -21.8583], [-43.2293, -21.8567], [-43.2271, -21.857], [-43.225, -21.8542], [-43.2243, -21.8501], [-43.2246, -21.8468], [-43.224, -21.8458], [-43.2206, -21.8458], [-43.2189, -21.8471], [-43.2172, -21.8489], [-43.2165, -21.8487], [-43.2147, -21.8467], [-43.2121, -21.8469], [-43.2112, -21.8463], [-43.2099, -21.8421], [-43.209, -21.8412], [-43.2061, -21.8422], [-43.2046, -21.8412], [-43.2033, -21.8411], [-43.2012, -21.8418], [-43.1987, -21.8443], [-43.1962, -21.8459], [-43.1951, -21.8486], [-43.1945, -21.8491], [-43.1936, -21.8519], [-43.1929, -21.8527], [-43.1906, -21.8524], [-43.1888, -21.8546], [-43.1878, -21.8533], [-43.1854, -21.8514], [-43.1825, -21.8511], [-43.1815, -21.8505], [-43.1809, -21.849], [-43.1789, -21.8485], [-43.1776, -21.8455], [-43.1742, -21.8454], [-43.1736, -21.8429], [-43.1723, -21.8413], [-43.1716, -21.8394], [-43.1682, -21.8367], [-43.1665, -21.8361], [-43.1651, -21.8346], [-43.1648, -21.833], [-43.1633, -21.8315], [-43.1611, -21.8314], [-43.1568, -21.8272], [-43.1563, -21.8237], [-43.1554, -21.8228], [-43.156, -21.8207], [-43.1554, -21.8179], [-43.1547, -21.8172], [-43.1528, -21.8171], [-43.1502, -21.8145], [-43.1475, -21.813], [-43.1483, -21.8116], [-43.1467, -21.8112], [-43.1497, -21.8092], [-43.151, -21.8089], [-43.1527, -21.8094], [-43.155, -21.8076], [-43.1585, -21.8076], [-43.1596, -21.8087], [-43.162, -21.8086], [-43.1638, -21.8058], [-43.1626, -21.8035], [-43.1622, -21.8008], [-43.1654, -21.8009], [-43.1659, -21.7994], [-43.1671, -21.7989], [-43.1672, -21.7975], [-43.1686, -21.7966], [-43.1704, -21.7975], [-43.1734, -21.7981], [-43.1743, -21.7963], [-43.1762, -21.7945], [-43.1774, -21.7928], [-43.1782, -21.7902], [-43.178, -21.7884], [-43.1766, -21.7859], [-43.1748, -21.7857], [-43.173, -21.7863], [-43.1713, -21.7862], [-43.1715, -21.784], [-43.1723, -21.7833], [-43.1732, -21.7812], [-43.1725, -21.7795], [-43.175, -21.7785], [-43.1754, -21.7757], [-43.1737, -21.7752], [-43.1741, -21.7738], [-43.1731, -21.7725], [-43.1713, -21.7721], [-43.1693, -21.7699], [-43.1686, -21.7667], [-43.1689, -21.7646], [-43.17, -21.7629], [-43.1692, -21.7616], [-43.1712, -21.7595], [-43.1734, -21.7567], [-43.1748, -21.7555], [-43.1777, -21.7548], [-43.1807, -21.7513], [-43.1827, -21.7509], [-43.1841, -21.7498], [-43.1842, -21.7462], [-43.1833, -21.7453], [-43.186, -21.7448], [-43.1876, -21.7429]]]}, "properties": {"codarea": "3136702", "name": "Juiz de Fora"}}, {"type": "Feature", "geometry": {"type": "Polygon", "coordinates": [[[-43.3527, -21.358], [-43.3533, -21.3586], [-43.3566, -21.3593], [-43.359, -21.3591], [-43.3643, -21.3635], [-43.3695, -21.3664], [-43.3701, -21.3677], [-43.3706, -21.3723], [-43.3716, -21.3733], [-43.3742, -21.3733], [-43.3789, -21.3739], [-43.3813, -21.3782], [-43.3833, -21.3795], [-43.3873, -21.3806], [-43.39, -21.3809], [-43.3927, -21.3821], [-43.3943, -21.3833], [-43.3962, -21.3859], [-43.398, -21.3869], [-43.3996, -21.3871], [-43.4036, -21.3866], [-43.4054, -21.3854], [-43.4065, -21.3831], [-43.4077, -21.3816], [-43.4095, -21.3808], [-43.4117, -21.3813], [-43.4125, -21.385], [-43.4136, -21.3872], [-43.4142, -21.3892], [-43.4156, -21.3911], [-43.4199, -21.394], [-43.4229, -21.3968], [-43.4241, -21.3971], [-43.4307, -21.3968], [-43.4313, -21.3976], [-43.4336, -21.3986], [-43.4343, -21.4004], [-43.4357, -21.4025], [-43.4393, -21.4033], [-43.441, -21.4048], [-43.4427, -21.4052], [-43.4437, -21.4069], [-43.4454, -21.4078], [-43.4457, -21.4107], [-43.4478, -21.4126], [-43.4481, -21.4138], [-43.4499, -21.4154], [-43.4511, -21.4147], [-43.4516, -21.4128], [-43.4536, -21.4094], [-43.4562, -21.4076], [-43.4569, -21.4086], [-43.4571, -21.411], [-43.4579, -21.4126], [-43.4599, -21.4136], [-43.4609, -21.4136], [-43.4623, -21.4096], [-43.4661, -21.4091], [-43.4691, -21.4098], [-43.4713, -21.4116], [-43.4721, -21.4119], [-43.4739, -21.4104], [-43.475, -21.409], [-43.475, -21.4074], [-43.4766, -21.4061], [-43.4779, -21.4042], [-43.4784, -21.4017], [-43.481, -21.3999], [-43.4829, -21.3996], [-43.4844, -21.4016], [-43.4863, -21.4022], [-43.4898, -21.402], [-43.492, -21.4009], [-43.4946, -21.3981], [-43.4957, -21.3966], [-43.499, -21.396], [-43.4992, -21.3952], [-43.4984, -21.3924], [-43.4987, -21.3898], [-43.4998, -21.387], [-43.4998, -21.3845], [-43.4989, -21.3822], [-43.4977, -21.3801], [-43.4956, -21.3783], [-43.4937, -21.3778], [-43.4916, -21.3787], [-43.4896, -21.379], [-43.488, -21.3769], [-43.4841, -21.3754], [-43.4831, -21.3736], [-43.4805, -21.3709], [-43.4785, -21.371], [-43.473, -21.3738], [-43.4704, -21.3738], [-43.4698, -21.3715], [-43.4726, -21.3723], [-43.4751, -21.3716], [-43.4752, -21.3686], [-43.4745, -21.3677], [-43.4742, -21.3656], [-43.4736, -21.3649], [-43.4734, -21.3628], [-43.4727, -21.3602], [-43.4761, -21.3597], [-43.4796, -21.3607], [-43.4803, -21.3619], [-43.4826, -21.3617], [-43.4844, -21.3593], [-43.4855, -21.3592], [-43.4862, -21.3605], [-43.4875, -21.3599], [-43.4888, -21.362], [-43.493, -21.359], [-43.4931, -21.3572], [-43.495, -21.3566], [-43.497, -21.355], [-43.4986, -21.3553], [-43.4999, -21.3567], [-43.5007, -21.3594], [-43.5023, -21.3614], [-43.5034, -21.3637], [-43.5049, -21.3638], [-43.5071, -21.3615], [-43.509, -21.3609], [-43.5101, -21.3615], [-43.5119, -21.3614], [-43.5157, -21.3643], [-43.5226, -21.3643], [-43.524, -21.3651], [-43.5255, -21.365], [-43.5289, -21.3675], [-43.5325, -21.3665], [-43.536, -21.3648], [-43.5382, -21.3644], [-43.5402, -21.3661], [-43.5427, -21.3662], [-43.5478, -21.3618], [-43.5503, -21.3621], [-43.5543, -21.3606], [-43.5553, -21.3588], [-43.5571, -21.3567], [-43.5585, -21.3565], [-43.5613, -21.3585], [-43.5641, -21.3587], [-43.5666, -21.3581], [-43.5681, -21.3586], [-43.5714, -21.3605], [-43.573, -21.3618], [-43.5769, -21.3624], [-43.5805, -21.3612], [-43.5832, -21.3606], [-43.5846, -21.3613], [-43.5874, -21.3643], [-43.5905, -21.3654], [-43.5935, -21.3678], [-43.5959, -21.3681], [-43.5977, -21.3695], [-43.602, -21.3672], [-43.6033, -21.3652], [-43.6053, -21.3653], [-43.6089, -21.3645], [-43.6105, -21.363], [-43.6122, -21.3623], [-43.6144, -21.3621], [-43.6142, -21.3685], [-43.6149, -21.3703], [-43.6164, -21.3713], [-43.6185, -21.3718], [-43.6215, -21.3715], [-43.6229, -21.3726], [-43.6252, -21.3735], [-43.6261, -21.3747], [-43.6267, -21.3773], [-43.6286, -21.3773], [-43.6311, -21.3757], [-43.6321, -21.3756], [-43.6345, -21.3736], [-43.636, -21.3743], [-43.6365, -21.377], [-43.638, -21.3794], [-43.6383, -21.381], [-43.6395, -21.382], [-43.6414, -21.3825], [-43.644, -21.3825], [-43.6472, -21.3849], [-43.6497, -21.3855], [-43.652, -21.3844], [-43.6526, -21.3833], [-43.6532, -21.3798], [-43.6538, -21.3786], [-43.6554, -21.3776], [-43.6574, -21.3773], [-43.6592, -21.3789], [-43.6592, -21.3817], [-43.66, -21.3829], [-43.6624, -21.3848], [-43.6641, -21.3852], [-43.6679, -21.3849], [-43.6699, -21.3866], [-43.6716, -21.3888], [-43.6747, -21.3899], [-43.6773, -21.3894], [-43.678, -21.3884], [-43.6781, -21.3868], [-43.679, -21.3853], [-43.6805, -21.3845], [-43.6845, -21.384], [-43.6873, -21.3849], [-43.6886, -21.3877], [-43.6889, -21.3898], [-43.6897, -21.3912], [-43.6912, -21.3918], [-43.6926, -21.3932], [-43.693, -21.3948], [-43.6963, -21.3949], [-43.6964, -21.3986], [-43.6981, -21.3991], [-43.7005, -21.3983], [-43.7015, -21.3994], [-43.7017, -21.4007], [-43.7035, -21.4025], [-43.7053, -21.403], [-43.7069, -21.4027], [-43.708, -21.4035], [-43.7096, -21.4103], [-43.7096, -21.4133], [-43.7066, -21.4152], [-43.7043, -21.4179], [-43.7029, -21.4187], [-43.698, -21.4196], [-43.6961, -21.421], [-43.6943, -21.4216], [-43.6937, -21.4233], [-43.693, -21.4267], [-43.6911, -21.4273], [-43.687, -21.4254], [-43.6851, -21.4255], [-43.6835, -21.427], [-43.6834, -21.4294], [-43.6815, -21.431], [-43.6771, -21.4322], [-43.6769, -21.4354], [-43.6755, -21.4378], [-43.6728, -21.4395], [-43.6718, -21.4396], [-43.671, -21.4413], [-43.6719, -21.4432], [-43.6713, -21.4465], [-43.6686, -21.4505], [-43.6685, -21.4512], [-43.6711, -21.4565], [-43.6717, -21.4599], [-43.6731, -21.4635], [-43.6728, -21.4667], [-43.6709, -21.4686], [-43.6694, -21.4689], [-43.6682, -21.4685], [-43.6667, -21.4661], [-43.665, -21.4656], [-43.6637, -21.4663], [-43.6621, -21.4682], [-43.6594, -21.4694], [-43.6547, -21.47], [-43.6543, -21.4733], [-43.6538, -21.4783], [-43.6543, -21.479], [-43.6584, -21.48], [-43.6586, -21.4815], [-43.6571, -21.4846], [-43.6557, -21.4866], [-43.6543, -21.4911], [-43.6524, -21.4926], [-43.6505, -21.4932], [-43.6489, -21.4975], [-43.651, -21.5001], [-43.6534, -21.5019], [-43.6549, -21.5043], [-43.6569, -21.5065], [-43.6588, -21.5073], [-43.6617, -21.507], [-43.6624, -21.5078], [-43.662, -21.51], [-43.6625, -21.5111], [-43.6647, -21.512], [-43.6654, -21.5171], [-43.6717, -21.5198], [-43.6731, -21.5208], [-43.6744, -21.5205], [-43.6761, -21.5223], [-43.6786, -21.5241], [-43.6811, -21.5254], [-43.6867, -21.5255], [-43.6908, -21.5247], [-43.6922, -21.5253], [-43.6927, -21.5268], [-43.6923, -21.5289], [-43.6904, -21.5292], [-43.6854, -21.5293], [-43.6839, -21.5308], [-43.6843, -21.533], [-43.6837, -21.5335], [-43.6854, -21.5356], [-43.6856, -21.5382], [-43.6851, -21.5409], [-43.6862, -21.5423], [-43.6882, -21.5431], [-43.6882, -21.5448], [-43.6862, -21.5472], [-43.685, -21.5481], [-43.685, -21.5501], [-43.6834, -21.5529], [-43.6822, -21.5542], [-43.681, -21.5564], [-43.6791, -21.5569], [-43.6802, -21.5601], [-43.6803, -21.5618], [-43.6828, -21.5664], [-43.6822, -21.5704], [-43.6831, -21.5725], [-43.6842, -21.5737], [-43.6857, -21.5742], [-43.6883, -21.5769], [-43.687, -21.5799], [-43.6869, -21.5813], [-43.6884, -21.5824], [-43.6909, -21.5833], [-43.6934, -21.5859], [-43.6951, -21.5858], [-43.6974, -21.5863], [-43.6994, -21.5856], [-43.7011, -21.5844], [-43.7061, -21.5853], [-43.7068, -21.586], [-43.7054, -21.5874], [-43.7045, -21.5899], [-43.7021, -21.59], [-43.7011, -21.5925], [-43.6986, -21.5929], [-43.6952, -21.5918], [-43.6914, -21.592], [-43.6895, -21.5931], [-43.689, -21.5941], [-43.6866, -21.594], [-43.6858, -21.5921], [-43.6837, -21.5889], [-43.6801, -21.589], [-43.6797, -21.5905], [-43.68, -21.5938], [-43.6785, -21.5961], [-43.6799, -21.5973], [-43.6806, -21.599], [-43.6798, -21.6024], [-43.6774, -21.6012], [-43.675, -21.6019], [-43.6725, -21.6009], [-43.6692, -21.6025], [-43.6679, -21.6042], [-43.666, -21.6053], [-43.6644, -21.6041], [-43.6627, -21.6015], [-43.6598, -21.6], [-43.6586, -21.599], [-43.6573, -21.5971], [-43.6551, -21.5976], [-43.6518, -21.5999], [-43.6514, -21.6006], [-43.6485, -21.6016], [-43.6463, -21.6032], [-43.643, -21.6078], [-43.6407, -21.6084], [-43.6395, -21.6079], [-43.6411, -21.6069], [-43.6416, -21.604], [-43.6432, -21.6011], [-43.6448, -21.6005], [-43.6443, -21.5986], [-43.6448, -21.5972], [-43.6466, -21.5948], [-43.6464, -21.5938], [-43.6447, -21.5916], [-43.6427, -21.5914], [-43.6403, -21.5895], [-43.6381, -21.5889], [-43.6373, -21.5879], [-43.6354, -21.584], [-43.6349, -21.5807], [-43.6342, -21.58], [-43.6309, -21.58], [-43.6286, -21.5791], [-43.626, -21.5797], [-43.6249, -21.5788], [-43.6239, -21.5748], [-43.6231, -21.5734], [-43.6167, -21.5731], [-43.6147, -21.5735], [-43.6131, -21.5732], [-43.6118, -21.5737], [-43.6101, -21.5735], [-43.6079, -21.5715], [-43.606, -21.5718], [-43.605, -21.5713], [-43.6044, -21.5689], [-43.6023, -21.5672], [-43.6011, -21.5686], [-43.5984, -21.5699], [-43.5971, -21.57], [-43.5946, -21.5683], [-43.5925, -21.5688], [-43.5893, -21.5689], [-43.5871, -21.5697], [-43.5862, -21.5677], [-43.5854, -21.567], [-43.5824, -21.5659], [-43.5804, -21.5629], [-43.5788, -21.5611], [-43.5783, -21.558], [-43.5769, -21.5549], [-43.5748, -21.554], [-43.5752, -21.5529], [-43.5747, -21.5514], [-43.5723, -21.5496], [-43.5721, -21.5481], [-43.5699, -21.5487], [-43.5682, -21.5509], [-43.5664, -21.5541], [-43.5649, -21.5541], [-43.5618, -21.5505], [-43.5599, -21.5488], [-43.5577, -21.5486], [-43.5556, -21.5473], [-43.5542, -21.5451], [-43.5531, -21.5401], [-43.5514, -21.5376], [-43.55, -21.5364], [-43.5484, -21.536], [-43.5478, -21.5349], [-43.548, -21.5337], [-43.5503, -21.5316], [-43.5503, -21.5312], [-43.5478, -21.5282], [-43.5461, -21.5271], [-43.5457, -21.5249], [-43.5472, -21.5234], [-43.5479, -21.5217], [-43.5475, -21.5209], [-43.5454, -21.5207], [-43.5398, -21.5179], [-43.5395, -21.5163], [-43.5381, -21.5154], [-43.5355, -21.5148], [-43.5319, -21.5157], [-43.5309, -21.5155], [-43.5295, -21.5142], [-43.5259, -21.5137], [-43.522, -21.5135], [-43.5191, -21.5157], [-43.5138, -21.5169], [-43.511, -21.5169], [-43.5099, -21.516], [-43.5079, -21.5125], [-43.5067, -21.5121], [-43.505, -21.5125], [-43.5028, -21.5142], [-43.5021, -21.5187], [-43.5015, -21.5204], [-43.4999, -21.5217], [-43.4981, -21.5256], [-43.4964, -21.5264], [-43.4944, -21.5252], [-43.4938, -21.5226], [-43.4927, -21.52], [-43.4891, -21.5227], [-43.4875, -21.5235], [-43.482, -21.5255], [-43.4791, -21.5286], [-43.4746, -21.5303], [-43.4729, -21.5306], [-43.471, -21.5277], [-43.4669, -21.5288], [-43.4635, -21.5285], [-43.4623, -21.5277], [-43.4602, -21.5254], [-43.4575, -21.5252], [-43.456, -21.5222], [-43.4541, -21.5209], [-43.4505, -21.5206], [-43.4493, -21.5216], [-43.4498, -21.5234], [-43.4478, -21.5233], [-43.4464, -21.5238], [-43.4448, -21.5251], [-43.4427, -21.5255], [-43.4406, -21.524], [-43.4389, -21.5246], [-43.4385, -21.5263], [-43.4367, -21.5298], [-43.437, -21.5316], [-43.4383, -21.5342], [-43.4381, -21.5358], [-43.4373, -21.5369], [-43.4357, -21.5377], [-43.4337, -21.538], [-43.4324, -21.5394], [-43.4308, -21.54], [-43.4265, -21.5405], [-43.4258, -21.5392], [-43.4248, -21.5359], [-43.422, -21.5332], [-43.4207, -21.5326], [-43.4192, -21.5309], [-43.4173, -21.5296], [-43.4137, -21.5285], [-43.4124, -21.5272], [-43.4106, -21.5238], [-43.4091, -21.5204], [-43.4101, -21.5183], [-43.4089, -21.5159], [-43.4095, -21.5145], [-43.4118, -21.5143], [-43.4124, -21.5132], [-43.4119, -21.5118], [-43.4096, -21.5095], [-43.4084, -21.5093], [-43.4064, -21.5102], [-43.4047, -21.5104], [-43.4027, -21.5114], [-43.4015, -21.5112], [-43.4009, -21.5086], [-43.4011, -21.507], [-43.4033, -21.5032], [-43.4029, -21.5014], [-43.4009, -21.4997], [-43.3992, -21.4999], [-43.3936, -21.4992], [-43.3917, -21.4972], [-43.3893, -21.4968], [-43.389, -21.4946], [-43.3902, -21.4934], [-43.3901, -21.4923], [-43.3888, -21.4911], [-43.382, -21.4904], [-43.3807, -21.4895], [-43.3791, -21.4864], [-43.378, -21.4835], [-43.3768, -21.4824], [-43.3758, -21.4799], [-43.374, -21.4775], [-43.374, -21.4759], [-43.3761, -21.472], [-43.3754, -21.4703], [-43.3717, -21.4707], [-43.3712, -21.4693], [-43.3732, -21.4666], [-43.3743, -21.466], [-43.3743, -21.4639], [-43.3703, -21.4624], [-43.3686, -21.4606], [-43.3671, -21.4603], [-43.3654, -21.4615], [-43.3626, -21.4624], [-43.361, -21.4609], [-43.3602, -21.4586], [-43.3596, -21.4583], [-43.3566, -21.4583], [-43.3539, -21.4599], [-43.3515, -21.4605], [-43.3511, -21.4594], [-43.3527, -21.4559], [-43.3526, -21.4542], [-43.3462, -21.4538], [-43.3456, -21.4534], [-43.3448, -21.4506], [-43.3423, -21.4502], [-43.3398, -21.4512], [-43.338, -21.4513], [-43.3355, -21.4501], [-43.3338, -21.4518], [-43.3325, -21.4522], [-43.3292, -21.4519], [-43.3279, -21.4525], [-43.325, -21.4564], [-43.3232, -21.456], [-43.3209, -21.4533], [-43.3204, -21.4511], [-43.3193, -21.4496], [-43.3189, -21.4478], [-43.3196, -21.4455], [-43.3188, -21.4444], [-43.3161, -21.4445], [-43.3147, -21.4433], [-43.3124, -21.4368], [-43.3119, -21.4342], [-43.3108, -21.4331], [-43.3087, -21.4319], [-43.306, -21.4322], [-43.305, -21.4331], [-43.3051, -21.4353], [-43.3057, -21.437], [-43.305, -21.4387], [-43.3035, -21.4387], [-43.3026, -21.4373], [-43.3015, -21.4337], [-43.3006, -21.4323], [-43.2991, -21.4294], [-43.2945, -21.4283], [-43.2937, -21.4275], [-43.2945, -21.4244], [-43.297, -21.4205], [-43.2979, -21.4172], [-43.2995, -21.4153], [-43.2996, -21.413], [-43.303, -21.4102], [-43.3032, -21.4079], [-43.3026, -21.4037], [-43.3036, -21.4012], [-43.3062, -21.3993], [-43.3071, -21.3976], [-43.3078, -21.3938], [-43.3086, -21.3918], [-43.3102, -21.3906], [-43.3129, -21.3892], [-43.3139, -21.3868], [-43.3147, -21.3862], [-43.3164, -21.3837], [-43.3183, -21.3848], [-43.3212, -21.3844], [-43.3218, -21.3821], [-43.3238, -21.3789], [-43.3247, -21.3762], [-43.3265, -21.3744], [-43.3292, -21.3746], [-43.3314, -21.3742], [-43.3348, -21.3726], [-43.3364, -21.3727], [-43.34, -21.3736], [-43.3449, -21.3737], [-43.3469, -21.3722], [-43.3472, -21.3686], [-43.3484, -21.3667], [-43.3478, -21.3627], [-43.3473, -21.3611], [-43.3482, -21.3597], [-43.3514, -21.3593], [-43.3527, -21.358]]]}, "properties": {"codarea": "3160702", "name": "Santos Dumont"}}, {"type": "Feature", "geometry": {"type": "Polygon", "coordinates": [[[-43.6679, -21.7504], [-43.67, -21.7506], [-43.6713, -21.7499], [-43.6744, -21.7472], [-43.6772, -21.7492], [-43.6805, -21.7498], [-43.6816, -21.752], [-43.6816, -21.7547], [-43.6831, -21.7567], [-43.684, -21.7561], [-43.6882, -21.756], [-43.6894, -21.7574], [-43.6916, -21.7582], [-43.6924, -21.7591], [-43.6941, -21.7591], [-43.6953, -21.7608], [-43.6948, -21.7638], [-43.6936, -21.7659], [-43.6937, -21.7682], [-43.6967, -21.7704], [-43.6975, -21.7732], [-43.6968, -21.7745], [-43.6967, -21.7775], [-43.7016, -21.7795], [-43.702, -21.7777], [-43.7016, -21.7756], [-43.7046, -21.774], [-43.7073, -21.7739], [-43.7083, -21.7745], [-43.7103, -21.7768], [-43.711, -21.7799], [-43.71, -21.7811], [-43.71, -21.7828], [-43.7088, -21.7839], [-43.7041, -21.7855], [-43.704, -21.788], [-43.7035, -21.7892], [-43.7012, -21.7896], [-43.7021, -21.7927], [-43.7042, -21.7938], [-43.7082, -21.799], [-43.7118, -21.7992], [-43.7115, -21.8011], [-43.714, -21.8049], [-43.7147, -21.8047], [-43.7156, -21.8025], [-43.7178, -21.8002], [-43.7173, -21.7945], [-43.718, -21.7939], [-43.7218, -21.7937], [-43.723, -21.7931], [-43.7252, -21.7934], [-43.7266, -21.7927], [-43.7269, -21.7905], [-43.7268, -21.7877], [-43.7279, -21.7851], [-43.7293, -21.7833], [-43.732, -21.7812], [-43.7344, -21.7807], [-43.7357, -21.7809], [-43.7381, -21.7823], [-43.7392, -21.7824], [-43.7452, -21.7819], [-43.7479, -21.7825], [-43.7492, -21.7834], [-43.7512, -21.7836], [-43.7533, -21.7834], [-43.7562, -21.7813], [-43.7581, -21.7759], [-43.7584, -21.7724], [-43.7544, -21.7714], [-43.7558, -21.7693], [-43.7561, -21.7678], [-43.7545, -21.7664], [-43.7518, -21.7618], [-43.7518, -21.7603], [-43.7495, -21.7583], [-43.7497, -21.7555], [-43.7511, -21.7537], [-43.7549, -21.7526], [-43.7557, -21.7517], [-43.7579, -21.7479], [-43.7602, -21.7429], [-43.7633, -21.7415], [-43.7655, -21.7395], [-43.7688, -21.7379], [-43.7721, -21.7368], [-43.7738, -21.7352], [-43.7771, -21.7349], [-43.7788, -21.7333], [-43.7799, -21.7306], [-43.7824, -21.7286], [-43.7835, -21.7269], [-43.7834, -21.7245], [-43.7858, -21.7219], [-43.7866, -21.719], [-43.7855, -21.7163], [-43.7855, -21.7148], [-43.7868, -21.7126], [-43.7891, -21.7132], [-43.7908, -21.7134], [-43.7922, -21.7129], [-43.7943, -21.7114], [-43.7958, -21.7114], [-43.7988, -21.7155], [-43.8009, -21.7152], [-43.8031, -21.7136], [-43.8065, -21.7131], [-43.8084, -21.7137], [-43.8119, -21.717], [-43.8166, -21.7183], [-43.8206, -21.7178], [-43.8239, -21.7202], [-43.8287, -21.7203], [-43.8315, -21.7191], [-43.8327, -21.718], [-43.8353, -21.7175], [-43.8378, -21.7175], [-43.8403, -21.717], [-43.8431, -21.7151], [-43.847, -21.7132], [-43.8506, -21.7142], [-43.8548, -21.7148], [-43.8561, -21.7143], [-43.8575, -21.7126], [-43.8591, -21.7118], [-43.8611, -21.7103], [-43.8627, -21.7102], [-43.8648, -21.7118], [-43.8658, -21.7119], [-43.8724, -21.7101], [-43.8731, -21.7096], [-43.8725, -21.7071], [-43.8706, -21.7044], [-43.8706, -21.7009], [-43.8722, -21.6971], [-43.8723, -21.6953], [-43.8715, -21.6924], [-43.8699, -21.6895], [-43.8702, -21.6873], [-43.8725, -21.6847], [-43.872, -21.6834], [-43.8729, -21.6808], [-43.873, -21.6788], [-43.8755, -21.6818], [-43.877, -21.6829], [-43.8795, -21.6833], [-43.883, -21.6843], [-43.8865, -21.6839], [-43.8877, -21.683], [-43.8904, -21.6801], [-43.8936, -21.6784], [-43.8943, -21.6772], [-43.8984, -21.6754], [-43.9014, -21.6703], [-43.9041, -21.67], [-43.9069, -21.6663], [-43.9088, -21.6623], [-43.9109, -21.6615], [-43.9132, -21.6614], [-43.9149, -21.6607], [-43.9164, -21.6593], [-43.9195, -21.6585], [-43.921, -21.6575], [-43.9243, -21.6528], [-43.9273, -21.6521], [-43.9285, -21.6513], [-43.93, -21.6494], [-43.9349, -21.6462], [-43.9386, -21.6462], [-43.942, -21.6436], [-43.9424, -21.6399], [-43.9444, -21.6373], [-43.9474, -21.6371], [-43.9493, -21.6364], [-43.9534, -21.6361], [-43.9555, -21.6346], [-43.9571, -21.6351], [-43.9565, -21.6359], [-43.9561, -21.6381], [-43.9533, -21.6407], [-43.949, -21.642], [-43.9489, -21.6443], [-43.9498, -21.646], [-43.9481, -21.6483], [-43.9477, -21.6502], [-43.9481, -21.6516], [-43.9503, -21.6522], [-43.953, -21.6521], [-43.9567, -21.6531], [-43.9597, -21.6529], [-43.962, -21.6534], [-43.9622, -21.6524], [-43.9635, -21.6515], [-43.9702, -21.6542], [-43.9723, -21.6559], [-43.9721, -21.6592], [-43.9715, -21.6612], [-43.9733, -21.6613], [-43.974, -21.6607], [-43.9757, -21.6617], [-43.9769, -21.6645], [-43.9786, -21.6663], [-43.979, -21.6677], [-43.9809, -21.6687], [-43.9834, -21.6687], [-43.9864, -21.6677], [-43.9868, -21.6654], [-43.9895, -21.6652], [-43.9903, -21.6643], [-43.9954, -21.664], [-43.9995, -21.6601], [-43.9998, -21.659], [-44.0018, -21.6578], [-44.0066, -21.6585], [-44.0077, -21.6591], [-44.0089, -21.6586], [-44.0102, -21.6592], [-44.0113, -21.6604], [-44.0132, -21.6614], [-44.0132, -21.6627], [-44.0155, -21.6641], [-44.0159, -21.6662], [-44.0172, -21.6687], [-44.0187, -21.6706], [-44.0187, -21.6716], [-44.017, -21.6764], [-44.0151, -21.6772], [-44.0135, -21.6757], [-44.0117, -21.675], [-44.0089, -21.6777], [-44.0076, -21.6779], [-44.0051, -21.6764], [-44.0018, -21.6784], [-43.9988, -21.6792], [-43.9959, -21.6798], [-43.9951, -21.6807], [-43.9944, -21.684], [-43.9937, -21.6856], [-43.9939, -21.6894], [-43.9915, -21.6904], [-43.9896, -21.6922], [-43.9879, -21.6945], [-43.9875, -21.6967], [-43.988, -21.6972], [-43.9958, -21.6971], [-43.9965, -21.6996], [-43.9976, -21.7011], [-43.9997, -21.7021], [-44.0029, -21.7011], [-44.0043, -21.7002], [-44.0053, -21.7008], [-44.0054, -21.703], [-44.0063, -21.7035], [-44.0087, -21.7035], [-44.0119, -21.7057], [-44.0158, -21.7068], [-44.0189, -21.709], [-44.0205, -21.7112], [-44.023, -21.7121], [-44.0241, -21.714], [-44.0264, -21.7143], [-44.0272, -21.7134], [-44.0289, -21.7137], [-44.0307, -21.7128], [-44.0327, -21.7145], [-44.0335, -21.7138], [-44.0336, -21.7111], [-44.0358, -21.7111], [-44.0378, -21.712], [-44.0407, -21.7117], [-44.0414, -21.7127], [-44.0431, -21.7127], [-44.0441, -21.7135], [-44.0459, -21.7138], [-44.0478, -21.715], [-44.0497, -21.7137], [-44.051, -21.7139], [-44.0533, -21.7135], [-44.0548, -21.7141], [-44.0564, -21.7168], [-44.0578, -21.7177], [-44.0606, -21.718], [-44.0636, -21.719], [-44.0624, -21.7208], [-44.0605, -21.7227], [-44.0643, -21.7238], [-44.0638, -21.7258], [-44.0653, -21.7262], [-44.0665, -21.7286], [-44.0676, -21.7296], [-44.0693, -21.7283], [-44.0713, -21.7305], [-44.0728, -21.7322], [-44.0732, -21.735], [-44.0744, -21.7339], [-44.077, -21.7336], [-44.0784, -21.7348], [-44.0784, -21.7368], [-44.0798, -21.7374], [-44.08, -21.7389], [-44.0777, -21.7401], [-44.0784, -21.742], [-44.0762, -21.7419], [-44.0729, -21.7432], [-44.0723, -21.7463], [-44.071, -21.7467], [-44.0709, -21.7486], [-44.0684, -21.7496], [-44.0686, -21.7508], [-44.07, -21.7506], [-44.0706, -21.7523], [-44.0718, -21.7527], [-44.0724, -21.7551], [-44.0756, -21.7567], [-44.0763, -21.7575], [-44.0769, -21.7604], [-44.076, -21.7621], [-44.0761, -21.7633], [-44.0773, -21.7648], [-44.0759, -21.7658], [-44.0783, -21.7678], [-44.0789, -21.7695], [-44.0784, -21.7736], [-44.079, -21.7742], [-44.0817, -21.7742], [-44.0835, -21.7748], [-44.0834, -21.778], [-44.0813, -21.7801], [-44.0785, -21.7794], [-44.0774, -21.7824], [-44.075, -21.7838], [-44.0747, -21.7852], [-44.0769, -21.7861], [-44.075, -21.7881], [-44.0754, -21.7907], [-44.0769, -21.7923], [-44.0769, -21.7942], [-44.0777, -21.7954], [-44.0764, -21.7966], [-44.0802, -21.7965], [-44.0817, -21.7955], [-44.0826, -21.7941], [-44.0839, -21.7932], [-44.085, -21.7937], [-44.0883, -21.7929], [-44.0892, -21.7922], [-44.0905, -21.7951], [-44.0909, -21.7969], [-44.0919, -21.8028], [-44.0949, -21.8028], [-44.0951, -21.8018], [-44.0966, -21.8018], [-44.0971, -21.803], [-44.0992, -21.8026], [-44.0997, -21.8034], [-44.0986, -21.8047], [-44.0977, -21.8067], [-44.0959, -21.8058], [-44.0939, -21.8079], [-44.0975, -21.8094], [-44.0956, -21.8099], [-44.0945, -21.8111], [-44.0962, -21.8119], [-44.0978, -21.8135], [-44.0966, -21.8147], [-44.0942, -21.8152], [-44.0937, -21.8162], [-44.0983, -21.8197], [-44.1014, -21.8205], [-44.1009, -21.8224], [-44.1012, -21.8237], [-44.0999, -21.8244], [-44.1, -21.8264], [-44.0971, -21.8276], [-44.0955, -21.8305], [-44.0947, -21.8309], [-44.0929, -21.8292], [-44.0936, -21.8276], [-44.0911, -21.8284], [-44.0921, -21.83], [-44.0898, -21.8322], [-44.0879, -21.8307], [-44.0867, -21.8303], [-44.0849, -21.8309], [-44.0847, -21.8322], [-44.0858, -21.8335], [-44.0869, -21.8337], [-44.088, -21.8348], [-44.0908, -21.8351], [-44.0915, -21.8362], [-44.0932, -21.8371], [-44.0928, -21.8379], [-44.0934, -21.841], [-44.0925, -21.8424], [-44.0933, -21.8456], [-44.0933, -21.8472], [-44.094, -21.8492], [-44.0952, -21.8505], [-44.0958, -21.8522], [-44.0978, -21.8549], [-44.0986, -21.8571], [-44.0983, -21.8626], [-44.0975, -21.8657], [-44.0977, -21.8678], [-44.0986, -21.8716], [-44.0989, -21.876], [-44.0984, -21.8774], [-44.097, -21.8785], [-44.0931, -21.8792], [-44.0896, -21.8809], [-44.0879, -21.8826], [-44.0869, -21.8852], [-44.0834, -21.887], [-44.0808, -21.8872], [-44.0773, -21.8865], [-44.0761, -21.8855], [-44.074, -21.882], [-44.0705, -21.8801], [-44.0652, -21.8761], [-44.0629, -21.8751], [-44.0602, -21.8731], [-44.0586, -21.8712], [-44.0569, -21.8705], [-44.0555, -21.8686], [-44.0548, -21.8669], [-44.0529, -21.8653], [-44.0502, -21.8652], [-44.0493, -21.8647], [-44.0476, -21.8624], [-44.0464, -21.8613], [-44.0442, -21.8607], [-44.0429, -21.8608], [-44.0387, -21.8595], [-44.0352, -21.8594], [-44.0332, -21.8587], [-44.0313, -21.8571], [-44.0245, -21.8549], [-44.0234, -21.855], [-44.0182, -21.8542], [-44.0143, -21.8547], [-44.0122, -21.8565], [-44.0112, -21.8568], [-44.01, -21.8558], [-44.0034, -21.8582], [-44.0004, -21.8584], [-43.9991, -21.8581], [-43.9922, -21.8598], [-43.9879, -21.8629], [-43.9858, -21.8628], [-43.9843, -21.8637], [-43.9829, -21.8636], [-43.978, -21.8621], [-43.9778, -21.8612], [-43.9786, -21.8595], [-43.9781, -21.8573], [-43.9786, -21.8551], [-43.9808, -21.8517], [-43.9805, -21.8499], [-43.9798, -21.8496], [-43.9774, -21.8504], [-43.9751, -21.85], [-43.9736, -21.8503], [-43.971, -21.85], [-43.9714, -21.8526], [-43.9704, -21.8551], [-43.968, -21.8566], [-43.9649, -21.8561], [-43.9602, -21.8556], [-43.9586, -21.8552], [-43.9572, -21.8562], [-43.9536, -21.8563], [-43.9527, -21.8559], [-43.9515, -21.8541], [-43.9488, -21.8541], [-43.9465, -21.8508], [-43.9422, -21.8487], [-43.9401, -21.8482], [-43.9387, -21.8469], [-43.9345, -21.8454], [-43.9335, -21.8443], [-43.9301, -21.8446], [-43.9266, -21.8461], [-43.9256, -21.8477], [-43.9261, -21.8495], [-43.9251, -21.8524], [-43.923, -21.8539], [-43.9218, -21.8555], [-43.922, -21.8589], [-43.9229, -21.8609], [-43.9262, -21.8629], [-43.9294, -21.8634], [-43.9295, -21.8643], [-43.9268, -21.8656], [-43.925, -21.8675], [-43.9213, -21.8688], [-43.9189, -21.8689], [-43.9137, -21.8704], [-43.9104, -21.8702], [-43.9092, -21.8712], [-43.9087, -21.8744], [-43.9081, -21.8754], [-43.906, -21.8766], [-43.9099, -21.8791], [-43.9109, -21.8802], [-43.9074, -21.8819], [-43.9087, -21.8831], [-43.9089, -21.8842], [-43.9118, -21.8845], [-43.9129, -21.8871], [-43.9151, -21.8898], [-43.9107, -21.8902], [-43.905, -21.8921], [-43.9032, -21.8937], [-43.901, -21.8946], [-43.8971, -21.8973], [-43.8943, -21.8996], [-43.8929, -21.9014], [-43.8933, -21.9028], [-43.8968, -21.9061], [-43.8966, -21.9069], [-43.8939, -21.9087], [-43.8932, -21.9089], [-43.8908, -21.9109], [-43.8891, -21.9119], [-43.8881, -21.9136], [-43.8886, -21.9174], [-43.888, -21.9187], [-43.8852, -21.92], [-43.8814, -21.9225], [-43.8759, -21.9234], [-43.8715, -21.9235], [-43.87, -21.9242], [-43.8681, -21.9243], [-43.8669, -21.9255], [-43.8648, -21.9288], [-43.8662, -21.93], [-43.8691, -21.9297], [-43.8694, -21.9305], [-43.8667, -21.9326], [-43.867, -21.9344], [-43.8688, -21.9364], [-43.8691, -21.9389], [-43.8712, -21.9422], [-43.8719, -21.9446], [-43.8715, -21.9484], [-43.8697, -21.9504], [-43.8695, -21.953], [-43.8686, -21.9543], [-43.8668, -21.9549], [-43.8648, -21.957], [-43.8646, -21.9581], [-43.8657, -21.96], [-43.8676, -21.9622], [-43.866, -21.9633], [-43.8614, -21.9638], [-43.8601, -21.9649], [-43.8569, -21.964], [-43.8515, -21.9622], [-43.8475, -21.962], [-43.8432, -21.9612], [-43.8399, -21.9598], [-43.838, -21.9585], [-43.8363, -21.9581], [-43.8348, -21.9569], [-43.8322, -21.9559], [-43.8305, -21.9564], [-43.8276, -21.9561], [-43.8246, -21.9574], [-43.8219, -21.9579], [-43.8173, -21.9576], [-43.8147, -21.9573], [-43.8104, -21.954], [-43.8081, -21.9525], [-43.8068, -21.9503], [-43.8037, -21.949], [-43.802, -21.9487], [-43.8012, -21.9478], [-43.8009, -21.9456], [-43.8001, -21.9447], [-43.7979, -21.9437], [-43.7969, -21.9424], [-43.7915, -21.9419], [-43.7884, -21.9419], [-43.7854, -21.9405], [-43.7838, -21.9388], [-43.781, -21.937], [-43.7792, -21.9343], [-43.7785, -21.9323], [-43.7768, -21.9299], [-43.7765, -21.9273], [-43.7743, -21.9252], [-43.7726, -21.9216], [-43.7728, -21.918], [-43.772, -21.9167], [-43.7708, -21.9136], [-43.7688, -21.9116], [-43.7662, -21.9104], [-43.765, -21.9081], [-43.7668, -21.9046], [-43.7669, -21.903], [-43.7656, -21.9014], [-43.7675, -21.9012], [-43.7699, -21.9016], [-43.772, -21.9012], [-43.7728, -21.9005], [-43.7741, -21.8967], [-43.7757, -21.8942], [-43.7769, -21.8891], [-43.7735, -21.8861], [-43.7765, -21.8807], [-43.7782, -21.8747], [-43.778, -21.8734], [-43.7766, -21.872], [-43.7718, -21.8708], [-43.7686, -21.8695], [-43.7661, -21.8674], [-43.7657, -21.8643], [-43.7619, -21.8631], [-43.7599, -21.8621], [-43.7571, -21.8623], [-43.7538, -21.8617], [-43.7522, -21.8598], [-43.7499, -21.8597], [-43.7478, -21.858], [-43.7439, -21.8579], [-43.7431, -21.8572], [-43.7428, -21.8552], [-43.7416, -21.855], [-43.7391, -21.8569], [-43.7374, -21.8575], [-43.7356, -21.8575], [-43.7333, -21.8584], [-43.7317, -21.8603], [-43.7292, -21.8623], [-43.7279, -21.8623], [-43.7267, -21.8589], [-43.7253, -21.8577], [-43.7221, -21.86], [-43.7211, -21.8602], [-43.7194, -21.8588], [-43.7178, -21.8587], [-43.7155, -21.858], [-43.715, -21.8559], [-43.715, -21.8538], [-43.7133, -21.8531], [-43.7102, -21.8546], [-43.7078, -21.8551], [-43.7066, -21.8544], [-43.7046, -21.8518], [-43.7036, -21.849], [-43.7016, -21.8486], [-43.6992, -21.8471], [-43.6953, -21.8419], [-43.6943, -21.84], [-43.6941, -21.8381], [-43.6934, -21.8371], [-43.6912, -21.8375], [-43.6898, -21.8372], [-43.6887, -21.8353], [-43.6866, -21.8333], [-43.6858, -21.8339], [-43.684, -21.8367], [-43.6822, -21.8379], [-43.6771, -21.8395], [-43.6711, -21.8437], [-43.6689, -21.8461], [-43.6664, -21.8519], [-43.6655, -21.8534], [-43.6637, -21.8509], [-43.6631, -21.8476], [-43.662, -21.8451], [-43.6577, -21.8441], [-43.6554, -21.8428], [-43.6541, -21.8413], [-43.6521, -21.8404], [-43.653, -21.8355], [-43.6514, -21.8332], [-43.6489, -21.8319], [-43.6467, -21.8297], [-43.6446, -21.8289], [-43.6407, -21.8295], [-43.6406, -21.8273], [-43.6412, -21.823], [-43.6402, -21.8204], [-43.6343, -21.8178], [-43.6334, -21.8193], [-43.6301, -21.8188], [-43.6295, -21.8164], [-43.6298, -21.8147], [-43.6323, -21.812], [-43.634, -21.8108], [-43.6346, -21.8094], [-43.6346, -21.8071], [-43.6351, -21.8056], [-43.6372, -21.8024], [-43.6374, -21.8001], [-43.6349, -21.7989], [-43.6344, -21.7972], [-43.6368, -21.7954], [-43.6403, -21.7942], [-43.6435, -21.7923], [-43.6506, -21.7906], [-43.6518, -21.7896], [-43.6527, -21.7867], [-43.6537, -21.7854], [-43.6532, -21.7832], [-43.6507, -21.7805], [-43.6509, -21.7796], [-43.6523, -21.7777], [-43.6527, -21.774], [-43.6532, -21.7714], [-43.6548, -21.7671], [-43.6561, -21.7648], [-43.6585, -21.7637], [-43.6593, -21.7607], [-43.6605, -21.7592], [-43.6616, -21.7558], [-43.6639, -21.755], [-43.6647, -21.7564], [-43.666, -21.7559], [-43.6669, -21.7543], [-43.6665, -21.7523], [-43.6651, -21.7513], [-43.6654, -21.7502], [-43.6679, -21.7504]]]}, "properties": {"codarea": "3138609", "name": "Lima Duarte"}}, {"type": "Feature", "geometry": {"type": "Polygon", "coordinates": [[[-43.8802, -21.3531], [-43.8797, -21.3526], [-43.8797, -21.348], [-43.8814, -21.3465], [-43.8825, -21.3466], [-43.8841, -21.3451], [-43.8837, -21.3436], [-43.8854, -21.3375], [-43.8844, -21.3369], [-43.8852, -21.3342], [-43.8849, -21.3323], [-43.8814, -21.3322], [-43.8799, -21.3305], [-43.8834, -21.3285], [-43.8834, -21.3274], [-43.8849, -21.3261], [-43.8857, -21.3242], [-43.8859, -21.322], [-43.8834, -21.32], [-43.8835, -21.3185], [-43.8829, -21.3167], [-43.8831, -21.3157], [-43.8806, -21.3155], [-43.8794, -21.3134], [-43.8794, -21.3103], [-43.8788, -21.3082], [-43.8794, -21.3054], [-43.8788, -21.3041], [-43.8764, -21.3031], [-43.8746, -21.3015], [-43.8731, -21.2989], [-43.8708, -21.298], [-43.8698, -21.2965], [-43.8674, -21.2976], [-43.865, -21.2973], [-43.8628, -21.2964], [-43.8625, -21.2928], [-43.8614, -21.2912], [-43.8611, -21.2898], [-43.8596, -21.2889], [-43.8578, -21.2887], [-43.8565, -21.288], [-43.8569, -21.2861], [-43.8551, -21.2859], [-43.8542, -21.2865], [-43.8542, -21.2883], [-43.8526, -21.288], [-43.8521, -21.2891], [-43.8507, -21.2893], [-43.8486, -21.288], [-43.8468, -21.288], [-43.8456, -21.2863], [-43.8423, -21.2853], [-43.8415, -21.2847], [-43.8415, -21.2833], [-43.8403, -21.2824], [-43.8413, -21.2798], [-43.8401, -21.2794], [-43.8398, -21.2784], [-43.842, -21.2768], [-43.8427, -21.2745], [-43.8386, -21.271], [-43.8341, -21.2709], [-43.8321, -21.2702], [-43.829, -21.271], [-43.8279, -21.2702], [-43.8271, -21.2715], [-43.829, -21.2744], [-43.8288, -21.2755], [-43.8276, -21.2763], [-43.8269, -21.2781], [-43.8246, -21.278], [-43.8232, -21.2788], [-43.8249, -21.2805], [-43.8228, -21.2816], [-43.8206, -21.2801], [-43.8178, -21.2794], [-43.817, -21.2799], [-43.8153, -21.2778], [-43.8137, -21.278], [-43.8113, -21.2764], [-43.8096, -21.2768], [-43.807, -21.2783], [-43.8042, -21.2791], [-43.8024, -21.279], [-43.8012, -21.2802], [-43.7983, -21.2808], [-43.7968, -21.2805], [-43.7961, -21.2786], [-43.7953, -21.2781], [-43.7933, -21.2781], [-43.7921, -21.2766], [-43.7912, -21.2763], [-43.7898, -21.2789], [-43.7906, -21.2796], [-43.7909, -21.2812], [-43.7877, -21.2806], [-43.7864, -21.2794], [-43.7839, -21.2798], [-43.7833, -21.2812], [-43.7822, -21.2817], [-43.7818, -21.2829], [-43.7855, -21.2865], [-43.7842, -21.2886], [-43.7835, -21.2888], [-43.7832, -21.2908], [-43.7818, -21.2913], [-43.7805, -21.2958], [-43.7781, -21.2951], [-43.7774, -21.2969], [-43.7749, -21.2987], [-43.7741, -21.2976], [-43.7706, -21.298], [-43.7705, -21.2992], [-43.7684, -21.2978], [-43.7667, -21.298], [-43.7659, -21.2967], [-43.7647, -21.2962], [-43.7635, -21.2942], [-43.7618, -21.2941], [-43.7617, -21.2929], [-43.7598, -21.2931], [-43.7579, -21.2927], [-43.7556, -21.2914], [-43.7549, -21.2904], [-43.756, -21.2883], [-43.7542, -21.2872], [-43.7543, -21.2852], [-43.7511, -21.2828], [-43.7501, -21.2829], [-43.7469, -21.2849], [-43.7463, -21.2858], [-43.743, -21.2865], [-43.7423, -21.2877], [-43.7422, -21.2895], [-43.741, -21.2934], [-43.7397, -21.2952], [-43.7314, -21.2964], [-43.7291, -21.2977], [-43.7263, -21.2996], [-43.7247, -21.3], [-43.7236, -21.3012], [-43.7209, -21.3015], [-43.7176, -21.3031], [-43.7141, -21.3037], [-43.7121, -21.3051], [-43.7102, -21.3047], [-43.7078, -21.3074], [-43.7061, -21.3114], [-43.7055, -21.3137], [-43.704, -21.3154], [-43.6995, -21.3173], [-43.698, -21.3193], [-43.6961, -21.3205], [-43.6949, -21.3219], [-43.6927, -21.3269], [-43.6921, -21.3296], [-43.6914, -21.3308], [-43.6883, -21.3328], [-43.6865, -21.3334], [-43.6868, -21.3355], [-43.6865, -21.3382], [-43.6841, -21.3392], [-43.6822, -21.3405], [-43.6816, -21.3415], [-43.6815, -21.3439], [-43.6809, -21.346], [-43.6793, -21.3475], [-43.6774, -21.3501], [-43.6753, -21.3498], [-43.6743, -21.3484], [-43.672, -21.3489], [-43.6678, -21.349], [-43.6648, -21.348], [-43.663, -21.3483], [-43.6588, -21.3512], [-43.6565, -21.3511], [-43.6545, -21.3536], [-43.6532, -21.3537], [-43.6512, -21.3573], [-43.6522, -21.3608], [-43.6483, -21.3629], [-43.6482, -21.3653], [-43.6468, -21.3669], [-43.6436, -21.3694], [-43.6399, -21.3698], [-43.6379, -21.3692], [-43.6349, -21.3694], [-43.6321, -21.3714], [-43.631, -21.3741], [-43.6311, -21.3757], [-43.63, -21.3748], [-43.6287, -21.3708], [-43.629, -21.3675], [-43.6282, -21.3651], [-43.6246, -21.3652], [-43.6225, -21.3648], [-43.6217, -21.364], [-43.6219, -21.3621], [-43.6213, -21.3604], [-43.6222, -21.3573], [-43.6216, -21.3528], [-43.6201, -21.3503], [-43.6163, -21.3475], [-43.6128, -21.3453], [-43.6124, -21.3443], [-43.6122, -21.3406], [-43.6103, -21.3392], [-43.6107, -21.3371], [-43.61, -21.3363], [-43.6082, -21.3364], [-43.6064, -21.3351], [-43.605, -21.3327], [-43.6028, -21.3323], [-43.6003, -21.3343], [-43.5998, -21.337], [-43.5984, -21.338], [-43.5941, -21.3384], [-43.5923, -21.3377], [-43.5897, -21.3347], [-43.5891, -21.3333], [-43.5889, -21.3301], [-43.5884, -21.3286], [-43.5863, -21.3262], [-43.5844, -21.3215], [-43.5836, -21.3205], [-43.5808, -21.3188], [-43.5808, -21.3166], [-43.5821, -21.3152], [-43.5833, -21.3122], [-43.5854, -21.3097], [-43.5861, -21.3083], [-43.5889, -21.3057], [-43.589, -21.3046], [-43.5883, -21.3019], [-43.5898, -21.2989], [-43.592, -21.2964], [-43.5919, -21.2953], [-43.5903, -21.2918], [-43.5902, -21.2902], [-43.5921, -21.2894], [-43.594, -21.2875], [-43.5955, -21.2871], [-43.5977, -21.2853], [-43.5979, -21.2823], [-43.5963, -21.2804], [-43.5949, -21.2776], [-43.5944, -21.2758], [-43.5939, -21.2711], [-43.5963, -21.2685], [-43.5975, -21.2679], [-43.6001, -21.2679], [-43.5987, -21.2655], [-43.5995, -21.2587], [-43.5999, -21.2578], [-43.6027, -21.2546], [-43.6028, -21.252], [-43.6033, -21.2508], [-43.6065, -21.2488], [-43.6068, -21.244], [-43.6089, -21.2419], [-43.6092, -21.2401], [-43.6082, -21.2371], [-43.6106, -21.2366], [-43.6111, -21.2356], [-43.6097, -21.2338], [-43.61, -21.2321], [-43.6094, -21.23], [-43.608, -21.2293], [-43.6078, -21.2281], [-43.6101, -21.2254], [-43.6093, -21.2234], [-43.6093, -21.221], [-43.6061, -21.2206], [-43.6037, -21.2183], [-43.6019, -21.2179], [-43.6014, -21.216], [-43.6023, -21.2133], [-43.602, -21.2127], [-43.5994, -21.2123], [-43.5985, -21.2112], [-43.5985, -21.209], [-43.5999, -21.2074], [-43.6019, -21.2066], [-43.6012, -21.2042], [-43.6003, -21.2029], [-43.5987, -21.2023], [-43.5982, -21.2004], [-43.5979, -21.1964], [-43.5988, -21.1948], [-43.5968, -21.1945], [-43.5955, -21.1937], [-43.5955, -21.1919], [-43.5971, -21.1898], [-43.5968, -21.1877], [-43.5985, -21.1851], [-43.5986, -21.1838], [-43.598, -21.1817], [-43.6001, -21.1789], [-43.5989, -21.1761], [-43.5981, -21.1735], [-43.5981, -21.1719], [-43.5996, -21.1688], [-43.5988, -21.1666], [-43.5998, -21.1632], [-43.6016, -21.1612], [-43.6012, -21.1594], [-43.6014, -21.1574], [-43.6002, -21.1518], [-43.6011, -21.1504], [-43.6034, -21.15], [-43.6054, -21.1483], [-43.6047, -21.1454], [-43.6041, -21.1447], [-43.6046, -21.1426], [-43.6063, -21.1403], [-43.607, -21.1365], [-43.6084, -21.1337], [-43.6081, -21.1306], [-43.6068, -21.1295], [-43.6087, -21.1294], [-43.6114, -21.1287], [-43.6151, -21.1299], [-43.6165, -21.1312], [-43.6181, -21.1335], [-43.6204, -21.1348], [-43.6218, -21.1333], [-43.6234, -21.1332], [-43.6259, -21.1361], [-43.6272, -21.1366], [-43.6292, -21.1363], [-43.6309, -21.1346], [-43.633, -21.1346], [-43.6339, -21.139], [-43.6356, -21.1416], [-43.6358, -21.1444], [-43.6369, -21.1449], [-43.6381, -21.1487], [-43.6397, -21.151], [-43.6426, -21.1525], [-43.6425, -21.1554], [-43.644, -21.1564], [-43.6456, -21.1553], [-43.6469, -21.1555], [-43.6488, -21.1569], [-43.6514, -21.1572], [-43.652, -21.1591], [-43.6531, -21.1604], [-43.6547, -21.1609], [-43.6567, -21.1592], [-43.6583, -21.1591], [-43.6594, -21.1603], [-43.6599, -21.1631], [-43.661, -21.1643], [-43.6633, -21.1657], [-43.6664, -21.1667], [-43.6686, -21.1669], [-43.6706, -21.1661], [-43.6735, -21.1665], [-43.6732, -21.1711], [-43.6743, -21.173], [-43.6764, -21.1737], [-43.6792, -21.1735], [-43.681, -21.174], [-43.6816, -21.1767], [-43.6853, -21.1766], [-43.6883, -21.1785], [-43.6909, -21.1816], [-43.6931, -21.1836], [-43.6941, -21.1824], [-43.6983, -21.1821], [-43.7013, -21.1843], [-43.7038, -21.1848], [-43.7057, -21.1823], [-43.7073, -21.1818], [-43.7099, -21.1825], [-43.7105, -21.1835], [-43.7106, -21.1867], [-43.7125, -21.1881], [-43.7148, -21.189], [-43.7175, -21.1885], [-43.7184, -21.1868], [-43.7196, -21.1858], [-43.7212, -21.1855], [-43.7237, -21.1857], [-43.7247, -21.1847], [-43.7269, -21.1845], [-43.7288, -21.1837], [-43.7295, -21.1823], [-43.732, -21.1801], [-43.7344, -21.1784], [-43.7353, -21.1772], [-43.7353, -21.1752], [-43.7369, -21.1754], [-43.7398, -21.1765], [-43.7423, -21.1762], [-43.7459, -21.1733], [-43.7486, -21.1743], [-43.7499, -21.1743], [-43.7536, -21.1731], [-43.7552, -21.1729], [-43.7593, -21.1731], [-43.7612, -21.1724], [-43.7621, -21.171], [-43.7625, -21.168], [-43.7635, -21.1668], [-43.7645, -21.167], [-43.7669, -21.1692], [-43.7698, -21.168], [-43.7722, -21.1685], [-43.7761, -21.1662], [-43.7779, -21.1644], [-43.7791, -21.1641], [-43.7818, -21.1613], [-43.7831, -21.1607], [-43.7839, -21.159], [-43.7847, -21.1556], [-43.7862, -21.1548], [-43.791, -21.1545], [-43.7929, -21.1529], [-43.7936, -21.153], [-43.7942, -21.1552], [-43.7958, -21.1549], [-43.7968, -21.1536], [-43.7977, -21.1538], [-43.7989, -21.1511], [-43.8021, -21.1493], [-43.8045, -21.1508], [-43.8075, -21.1514], [-43.8088, -21.1503], [-43.8099, -21.1507], [-43.8107, -21.1526], [-43.8133, -21.1542], [-43.8171, -21.1527], [-43.8174, -21.1517], [-43.8192, -21.1498], [-43.8205, -21.1494], [-43.8221, -21.1506], [-43.8239, -21.1502], [-43.8285, -21.1507], [-43.8291, -21.1495], [-43.8287, -21.1473], [-43.829, -21.1457], [-43.8305, -21.1458], [-43.8315, -21.1462], [-43.8332, -21.1483], [-43.8351, -21.1489], [-43.8366, -21.1505], [-43.841, -21.1497], [-43.8453, -21.1495], [-43.8459, -21.1507], [-43.848, -21.1511], [-43.8486, -21.1487], [-43.8508, -21.1474], [-43.8534, -21.1465], [-43.8544, -21.1454], [-43.8554, -21.1457], [-43.8568, -21.1447], [-43.8567, -21.1432], [-43.8579, -21.1417], [-43.857, -21.141], [-43.8565, -21.1392], [-43.858, -21.1381], [-43.8593, -21.1382], [-43.86, -21.1369], [-43.862, -21.1371], [-43.8636, -21.1349], [-43.8652, -21.1345], [-43.8656, -21.1328], [-43.8673, -21.1331], [-43.8718, -21.131], [-43.8734, -21.1318], [-43.8756, -21.1349], [-43.8778, -21.1369], [-43.8771, -21.1383], [-43.8811, -21.1395], [-43.8835, -21.1388], [-43.8844, -21.1413], [-43.8854, -21.1423], [-43.8876, -21.1401], [-43.8876, -21.1392], [-43.8898, -21.1378], [-43.8918, -21.1375], [-43.894, -21.1378], [-43.8951, -21.1374], [-43.8962, -21.1383], [-43.8987, -21.1387], [-43.8992, -21.1401], [-43.8982, -21.1421], [-43.9001, -21.1426], [-43.8999, -21.1443], [-43.9016, -21.1458], [-43.9041, -21.1458], [-43.9026, -21.1439], [-43.9024, -21.1426], [-43.9037, -21.1416], [-43.9022, -21.1405], [-43.9023, -21.1369], [-43.9009, -21.1348], [-43.8997, -21.1346], [-43.8983, -21.1322], [-43.8959, -21.132], [-43.8956, -21.1284], [-43.8961, -21.1276], [-43.9, -21.1279], [-43.9041, -21.1267], [-43.9044, -21.1249], [-43.9079, -21.1249], [-43.9096, -21.1245], [-43.9125, -21.1249], [-43.9132, -21.127], [-43.9147, -21.1264], [-43.9167, -21.1265], [-43.9174, -21.1273], [-43.9188, -21.1266], [-43.9182, -21.1246], [-43.919, -21.1232], [-43.9217, -21.1225], [-43.9245, -21.1209], [-43.9255, -21.1192], [-43.9275, -21.1179], [-43.9295, -21.1191], [-43.93, -21.1207], [-43.9296, -21.1218], [-43.9303, -21.1235], [-43.9304, -21.126], [-43.9333, -21.1243], [-43.9345, -21.1228], [-43.9368, -21.1229], [-43.9382, -21.1241], [-43.9401, -21.124], [-43.9412, -21.1216], [-43.9414, -21.124], [-43.9406, -21.1253], [-43.9377, -21.1285], [-43.9361, -21.1295], [-43.9346, -21.1296], [-43.9329, -21.1329], [-43.9335, -21.1348], [-43.93, -21.1355], [-43.9294, -21.1359], [-43.9287, -21.1397], [-43.9295, -21.1417], [-43.9299, -21.1444], [-43.93, -21.1476], [-43.9291, -21.1486], [-43.9264, -21.1489], [-43.9262, -21.1512], [-43.9255, -21.1536], [-43.9258, -21.1573], [-43.9244, -21.1607], [-43.9252, -21.164], [-43.9238, -21.1664], [-43.924, -21.1684], [-43.9227, -21.1692], [-43.9213, -21.1685], [-43.9191, -21.1684], [-43.9181, -21.1677], [-43.9165, -21.1677], [-43.9156, -21.1687], [-43.9156, -21.1711], [-43.9141, -21.1722], [-43.9131, -21.175], [-43.913, -21.1781], [-43.9136, -21.181], [-43.9114, -21.1827], [-43.9096, -21.1828], [-43.9074, -21.1818], [-43.9039, -21.1832], [-43.9012, -21.1856], [-43.8984, -21.1858], [-43.8963, -21.1879], [-43.8963, -21.189], [-43.8981, -21.1909], [-43.8982, -21.193], [-43.8973, -21.1941], [-43.8966, -21.1978], [-43.8972, -21.2005], [-43.8983, -21.2016], [-43.9001, -21.2045], [-43.9022, -21.205], [-43.9022, -21.2079], [-43.904, -21.2121], [-43.9058, -21.2138], [-43.909, -21.214], [-43.9101, -21.2145], [-43.9098, -21.2165], [-43.9115, -21.217], [-43.9126, -21.2184], [-43.9125, -21.2195], [-43.9141, -21.221], [-43.9144, -21.2223], [-43.9134, -21.2233], [-43.9143, -21.2245], [-43.9162, -21.2239], [-43.918, -21.222], [-43.9192, -21.2232], [-43.9198, -21.2219], [-43.921, -21.2214], [-43.9237, -21.2216], [-43.9264, -21.2237], [-43.9287, -21.2234], [-43.9317, -21.2239], [-43.9328, -21.2232], [-43.9332, -21.2219], [-43.9327, -21.2179], [-43.9346, -21.2164], [-43.9351, -21.2144], [-43.9368, -21.2123], [-43.938, -21.2119], [-43.9406, -21.2141], [-43.9424, -21.2146], [-43.9434, -21.2156], [-43.9444, -21.2185], [-43.9434, -21.2209], [-43.9442, -21.2218], [-43.9459, -21.221], [-43.9465, -21.2194], [-43.9495, -21.2181], [-43.9505, -21.2151], [-43.9492, -21.2142], [-43.949, -21.2121], [-43.9495, -21.2107], [-43.9543, -21.2079], [-43.9528, -21.2056], [-43.9515, -21.2047], [-43.9522, -21.2025], [-43.954, -21.2002], [-43.9547, -21.2001], [-43.9559, -21.2017], [-43.9579, -21.2029], [-43.9603, -21.2034], [-43.961, -21.2046], [-43.9607, -21.2065], [-43.966, -21.208], [-43.9669, -21.2101], [-43.9687, -21.2117], [-43.9689, -21.2139], [-43.9712, -21.2166], [-43.9731, -21.2185], [-43.9747, -21.2186], [-43.9759, -21.2206], [-43.9808, -21.2203], [-43.9823, -21.2209], [-43.9843, -21.2238], [-43.9875, -21.2258], [-43.9881, -21.2284], [-43.9905, -21.2303], [-43.9956, -21.2309], [-43.9983, -21.2309], [-43.9989, -21.2302], [-43.9985, -21.226], [-43.9988, -21.2235], [-44.0012, -21.2221], [-44.0019, -21.2209], [-44.006, -21.2229], [-44.0072, -21.224], [-44.0081, -21.227], [-44.0103, -21.2277], [-44.0109, -21.2286], [-44.0167, -21.2327], [-44.0173, -21.2349], [-44.0174, -21.2369], [-44.0191, -21.2388], [-44.0194, -21.2401], [-44.0213, -21.2412], [-44.0229, -21.2416], [-44.0228, -21.2431], [-44.0235, -21.2448], [-44.0232, -21.2464], [-44.0205, -21.2499], [-44.0212, -21.2514], [-44.0208, -21.2541], [-44.0222, -21.2556], [-44.0258, -21.2529], [-44.0287, -21.2532], [-44.0286, -21.2555], [-44.0265, -21.2577], [-44.025, -21.2579], [-44.0248, -21.2591], [-44.0214, -21.259], [-44.0217, -21.2607], [-44.0204, -21.262], [-44.0198, -21.2606], [-44.0187, -21.2599], [-44.0176, -21.2603], [-44.0172, -21.2614], [-44.0148, -21.2624], [-44.0147, -21.2604], [-44.0107, -21.2591], [-44.0084, -21.2593], [-44.0058, -21.2605], [-44.0057, -21.2614], [-44.0076, -21.2615], [-44.0086, -21.2622], [-44.0085, -21.2647], [-44.0095, -21.2657], [-44.0108, -21.2655], [-44.0139, -21.2669], [-44.0134, -21.2684], [-44.0123, -21.2688], [-44.01, -21.2711], [-44.0152, -21.2711], [-44.0156, -21.2722], [-44.02, -21.272], [-44.0196, -21.2732], [-44.0146, -21.2736], [-44.0136, -21.2741], [-44.0113, -21.2737], [-44.0109, -21.2761], [-44.0091, -21.2785], [-44.0096, -21.28], [-44.0123, -21.28], [-44.012, -21.2813], [-44.0105, -21.2812], [-44.0102, -21.2822], [-44.0112, -21.2837], [-44.0065, -21.2858], [-44.0075, -21.2866], [-44.008, -21.2893], [-44.003, -21.2895], [-44.0011, -21.289], [-44.0002, -21.2873], [-43.997, -21.2869], [-43.9977, -21.2881], [-43.9974, -21.2894], [-43.9982, -21.2904], [-43.9977, -21.2919], [-43.9966, -21.2926], [-43.995, -21.2922], [-43.9947, -21.2941], [-43.9929, -21.2937], [-43.992, -21.2948], [-43.9899, -21.2947], [-43.9884, -21.2974], [-43.9898, -21.2986], [-43.9916, -21.2981], [-43.9937, -21.2989], [-43.9936, -21.3005], [-43.9968, -21.3015], [-43.9975, -21.3022], [-43.9968, -21.3049], [-43.9982, -21.3062], [-43.9976, -21.3077], [-43.999, -21.3082], [-44.0016, -21.3075], [-44.0019, -21.307], [-44.0009, -21.3037], [-44.0028, -21.3016], [-44.0045, -21.3021], [-44.0072, -21.3037], [-44.0082, -21.3055], [-44.0097, -21.3059], [-44.011, -21.3073], [-44.0104, -21.3083], [-44.0084, -21.3096], [-44.0076, -21.311], [-44.0086, -21.3116], [-44.0108, -21.3105], [-44.0108, -21.3116], [-44.0099, -21.3128], [-44.0133, -21.3139], [-44.0142, -21.3156], [-44.0164, -21.3152], [-44.0179, -21.3157], [-44.0184, -21.3172], [-44.0176, -21.3189], [-44.0159, -21.3198], [-44.0146, -21.3198], [-44.0144, -21.3212], [-44.0155, -21.3224], [-44.0165, -21.3216], [-44.0189, -21.3234], [-44.0194, -21.325], [-44.0182, -21.3267], [-44.0201, -21.3292], [-44.0197, -21.3311], [-44.0189, -21.3314], [-44.0205, -21.3336], [-44.0232, -21.3356], [-44.0233, -21.338], [-44.0243, -21.3415], [-44.0185, -21.3445], [-44.0147, -21.3452], [-44.0143, -21.3473], [-44.0153, -21.3494], [-44.0166, -21.3503], [-44.0175, -21.3526], [-44.0172, -21.3541], [-44.0156, -21.3557], [-44.013, -21.3576], [-44.0133, -21.3585], [-44.0114, -21.36], [-44.0095, -21.3598], [-44.0089, -21.3609], [-44.0054, -21.3632], [-44.0035, -21.3633], [-44.0023, -21.3624], [-43.9999, -21.3629], [-43.9978, -21.3608], [-43.9953, -21.3614], [-43.9941, -21.3597], [-43.9927, -21.36], [-43.9903, -21.3623], [-43.9905, -21.3661], [-43.9893, -21.3677], [-43.9864, -21.3671], [-43.985, -21.3655], [-43.981, -21.3657], [-43.9804, -21.3666], [-43.9808, -21.3686], [-43.979, -21.3686], [-43.9787, -21.3713], [-43.9759, -21.3731], [-43.9732, -21.3733], [-43.9724, -21.3716], [-43.9699, -21.371], [-43.969, -21.3727], [-43.9675, -21.3729], [-43.966, -21.3707], [-43.9642, -21.3708], [-43.9635, -21.3715], [-43.9629, -21.3736], [-43.9603, -21.3738], [-43.959, -21.3754], [-43.9573, -21.3754], [-43.9556, -21.3735], [-43.951, -21.373], [-43.9474, -21.3718], [-43.9436, -21.3716], [-43.9405, -21.3725], [-43.9352, -21.3729], [-43.9343, -21.3734], [-43.9334, -21.3751], [-43.9331, -21.3777], [-43.9321, -21.3814], [-43.9314, -21.3829], [-43.9287, -21.3855], [-43.9267, -21.3867], [-43.9234, -21.3872], [-43.9235, -21.3837], [-43.9224, -21.3827], [-43.9185, -21.3812], [-43.9171, -21.3794], [-43.9197, -21.3781], [-43.9208, -21.376], [-43.9206, -21.3744], [-43.918, -21.3718], [-43.9167, -21.3711], [-43.9149, -21.3689], [-43.9118, -21.3682], [-43.9095, -21.3659], [-43.9083, -21.3652], [-43.9028, -21.3635], [-43.9008, -21.3619], [-43.8988, -21.3628], [-43.8926, -21.3611], [-43.8914, -21.3599], [-43.8884, -21.3561], [-43.885, -21.3547], [-43.8802, -21.3531]]]}, "properties": {"codarea": "3105608", "name": "Belmiro Braga"}}]}